{"spkid": "54212701", "covariance": {"data": [["1.712138568670647E-13", "-1.821768191215709E-13", "2.296346440882864E-11", "2.280358351255428E-12", "7.314991465599338E-12", "3.931737925714512E-14"], ["-1.821768191215709E-13", "1.938437426909275E-13", "-2.44467257160197E-11", "-2.41138621771178E-12", "-7.80977894800703E-12", "-4.169384238610004E-14"], ["2.296346440882864E-11", "-2.44467257160197E-11", "3.328227522444172E-9", "2.224140790472012E-10", "1.277678655123357E-9", "2.827622865960636E-12"], ["2.280358351255428E-12", "-2.41138621771178E-12", "2.224140790472012E-10", "1.325135506956613E-7", "-1.324603967376246E-7", "3.631080759950203E-11"], ["7.314991465599338E-12", "-7.80977894800703E-12", "1.277678655123357E-9", "-1.324603967376246E-7", "1.331284168017873E-7", "-3.620439493966365E-11"], ["3.931737925714512E-14", "-4.169384238610004E-14", "2.827622865960636E-12", "3.631080759950203E-11", "-3.620439493966365E-11", "3.722630146283361E-13"]], "elements": [{"units": null, "value": ".1721156680182576", "title": "eccentricity", "sigma": 4.13779961896495e-07, "name": "e", "label": "e"}, {"name": "q", "sigma": 4.40276893205773e-07, "value": ".8130040688771304", "title": "perihelion distance", "units": "au", "label": "q"}, {"name": "tp", "sigma": 5.76907923541025e-05, "units": "TDB", "title": "time of perihelion passage", "value": "2459769.776160103295", "label": "tp"}, {"units": "deg", "title": "longitude of the ascending node", "value": "313.6042742728392", "name": "om", "sigma": 0.000364024107300137, "label": "node"}, {"label": "peri", "name": "w", "sigma": 0.000364867670261134, "units": "deg", "title": "argument of perihelion", "value": "321.4441487154287"}, {"title": "inclination", "value": ".2833551224744996", "units": "deg", "sigma": 6.10133603916664e-07, "name": "i", "label": "i"}], "labels": ["e", "q", "tp", "node", "peri", "i"], "epoch": "2459749.5"}, "elements": [{"name": "e", "sigma": "4.1367E-7", "value": ".1722640074907677", "title": "eccentricity", "units": null, "label": "e"}, {"label": "a", "name": "a", "sigma": "3.8746E-8", "title": "semi-major axis", "value": ".9812189392933367", "units": "au"}, {"label": "q", "sigma": "4.3796E-7", "name": "q", "title": "perihelion distance", "value": ".8121902325848261", "units": "au"}, {"name": "i", "sigma": "6.0924E-7", "units": "deg", "value": ".2819153191787666", "title": "inclination; angle with respect to x-y ecliptic plane", "label": "i"}, {"name": "om", "sigma": ".00036735", "title": "longitude of the ascending node", "value": "313.1071884757392", "units": "deg", "label": "node"}, {"units": "deg", "value": "321.6890861431507", "title": "argument of perihelion", "sigma": ".00036813", "name": "w", "label": "peri"}, {"sigma": "3.5438E-5", "name": "ma", "units": "deg", "title": "mean anomaly", "value": "9.545369970713065", "label": "M"}, {"label": "tp", "title": "time of perihelion passage", "value": "2461191.086793728582", "units": "TDB", "sigma": "3.4442E-5", "name": "tp"}, {"title": "sidereal orbital period", "value": "355.0154963199838", "units": "d", "name": "per", "sigma": "2.1028E-5", "label": "period"}, {"label": "n", "units": "deg/d", "title": "mean motion", "value": "1.014040242557535", "name": "n", "sigma": "6.0064E-8"}, {"label": "Q", "name": "ad", "sigma": "4.5421E-8", "units": "au", "title": "aphelion distance", "value": "1.150247646001847"}], "epoch": "2461200.5"}